INTELSAT 30 (IS-30)     
1 40271U 14062A   26093.52282479 -.00000154  00000+0  00000+0 0  9995
2 40271   0.0135 222.9247 0001310  34.8120  27.2943  1.00274988  6042
DIRECTV 14              
1 40333U 14078B   26094.22785335  .00000000  00000+0  00000+0 0  9997
2 40333   0.0118 194.9577 0000644 290.1375  50.2430  1.00269517 41301
DIRECTV 15              
1 40663U 15026A   26094.05530909 -.00000103  00000+0  00000+0 0  9998
2 40663   0.0354  90.1630 0000303  61.0471 318.1889  1.00271485 39724
SKY MEXICO-1            
1 40664U 15026B   26094.16059974 -.00000235  00000+0  00000+0 0  9995
2 40664   0.0135 134.6612 0002558 264.2120 132.6117  1.00272005 39719
INTELSAT 34 (IS-34)     
1 40874U 15039A   26094.09395281 -.00000286  00000+0  00000+0 0  9994
2 40874   0.0196 267.9679 0000165  24.6055 238.1701  1.00275656 38882
INTELSAT 31 (IS-31)     
1 41581U 16035A   26093.94350626 -.00000153  00000+0  00000+0 0  9997
2 41581   0.0130 222.4604 0001522  25.0744 189.3588  1.00276525 35937
INTELSAT 36 (IS-36)     
1 41747U 16053A   26092.62108800  .00000000  00000+0  00000+0 0  9990
2 41747   0.0089 185.4546 0000956 155.1190 142.4796  1.00270459 35208
INTELSAT 32E (IS-32E)   
1 41945U 17007B   26094.22753240  .00000000  00000+0  00000+0 0  9992
2 41945   0.0193 209.7546 0000255  58.6867 322.8327  1.00268206 33483
INTELSAT 35E (IS-35E)   
1 42818U 17041A   26094.22197449 -.00000238  00000+0  00000+0 0  9997
2 42818   0.0167 219.8942 0002126 154.6653 223.3781  1.00273083 32077
INTELSAT 37E (IS-37E)   
1 42950U 17059A   26094.21642233  .00000000  00000+0  00000+0 0  9994
2 42950   0.0182 199.0497 0002172 193.0712 220.3182  1.00270816 31329
AZERSPACE 2 (IS-38)     
1 43632U 18074A   26094.11388623  .00000136  00000+0  00000+0 0  9999
2 43632   0.0026 182.5545 0001535 204.7795 251.2061  1.00271589 27702
HORIZONS-3E             
1 43633U 18074B   26094.20973995 -.00000031  00000+0  00000+0 0  9997
2 43633   0.0168  32.8001 0000704 294.4706 109.7631  1.00272627 27590
AT&T T-16               
1 44333U 19034A   26094.15626639 -.00000116  00000+0  00000+0 0  9990
2 44333   0.0264 102.7749 0000955  80.5716 324.5259  1.00273719 24890
INTELSAT 39 (IS-39)     
1 44476U 19049B   26094.11717958  .00000000  00000+0  00000+0 0  9996
2 44476   0.0183 204.5656 0000387 304.6095 147.3881  1.00270172 24381
GALAXY 30 (G-30)        
1 46114U 20056C   26094.22282666  .00000000  00000+0  00000+0 0  9992
2 46114   0.0179 206.7448 0002451 194.0795 106.9342  1.00271919 20550
GALAXY 33 (G-33)        
1 54026U 22128A   26094.22117999  .00000000  00000+0  00000+0 0  9991
2 54026   0.0156 222.9553 0001987 159.1067 117.1024  1.00270954 13001
GALAXY 34 (G-34)        
1 54027U 22128B   26094.21708145  .00000000  00000+0  00000+0 0  9990
2 54027   0.0178 185.5760 0001484 185.0360 131.1333  1.00270403 13172
