[{"OBJECT_NAME":"INTELSAT 30 (IS-30)","OBJECT_ID":"2014-062A","EPOCH":"2026-04-03T12:32:52.061856","MEAN_MOTION":1.00274988,"ECCENTRICITY":0.000131,"INCLINATION":0.0135,"RA_OF_ASC_NODE":222.9247,"ARG_OF_PERICENTER":34.812,"MEAN_ANOMALY":27.2943,"EPHEMERIS_TYPE":0,"CLASSIFICATION_TYPE":"U","NORAD_CAT_ID":40271,"ELEMENT_SET_NO":999,"REV_AT_EPOCH":604,"BSTAR":0,"MEAN_MOTION_DOT":-1.54e-6,"MEAN_MOTION_DDOT":0},{"OBJECT_NAME":"DIRECTV 14","OBJECT_ID":"2014-078B","EPOCH":"2026-04-04T05:28:06.529440","MEAN_MOTION":1.00269517,"ECCENTRICITY":6.445e-5,"INCLINATION":0.0118,"RA_OF_ASC_NODE":194.9577,"ARG_OF_PERICENTER":290.1375,"MEAN_ANOMALY":50.243,"EPHEMERIS_TYPE":0,"CLASSIFICATION_TYPE":"U","NORAD_CAT_ID":40333,"ELEMENT_SET_NO":999,"REV_AT_EPOCH":4130,"BSTAR":0,"MEAN_MOTION_DOT":0,"MEAN_MOTION_DDOT":0},{"OBJECT_NAME":"DIRECTV 15","OBJECT_ID":"2015-026A","EPOCH":"2026-04-04T01:19:38.705376","MEAN_MOTION":1.00271485,"ECCENTRICITY":3.031e-5,"INCLINATION":0.0354,"RA_OF_ASC_NODE":90.163,"ARG_OF_PERICENTER":61.0471,"MEAN_ANOMALY":318.1889,"EPHEMERIS_TYPE":0,"CLASSIFICATION_TYPE":"U","NORAD_CAT_ID":40663,"ELEMENT_SET_NO":999,"REV_AT_EPOCH":3972,"BSTAR":0,"MEAN_MOTION_DOT":-1.03e-6,"MEAN_MOTION_DDOT":0},{"OBJECT_NAME":"SKY MEXICO-1","OBJECT_ID":"2015-026B","EPOCH":"2026-04-04T03:51:15.817536","MEAN_MOTION":1.00272005,"ECCENTRICITY":0.00025585,"INCLINATION":0.0135,"RA_OF_ASC_NODE":134.6612,"ARG_OF_PERICENTER":264.212,"MEAN_ANOMALY":132.6117,"EPHEMERIS_TYPE":0,"CLASSIFICATION_TYPE":"U","NORAD_CAT_ID":40664,"ELEMENT_SET_NO":999,"REV_AT_EPOCH":3971,"BSTAR":0,"MEAN_MOTION_DOT":-2.35e-6,"MEAN_MOTION_DDOT":0},{"OBJECT_NAME":"INTELSAT 34 (IS-34)","OBJECT_ID":"2015-039A","EPOCH":"2026-04-04T02:15:17.522784","MEAN_MOTION":1.00275656,"ECCENTRICITY":1.654e-5,"INCLINATION":0.0196,"RA_OF_ASC_NODE":267.9679,"ARG_OF_PERICENTER":24.6055,"MEAN_ANOMALY":238.1701,"EPHEMERIS_TYPE":0,"CLASSIFICATION_TYPE":"U","NORAD_CAT_ID":40874,"ELEMENT_SET_NO":999,"REV_AT_EPOCH":3888,"BSTAR":0,"MEAN_MOTION_DOT":-2.86e-6,"MEAN_MOTION_DDOT":0},{"OBJECT_NAME":"INTELSAT 31 (IS-31)","OBJECT_ID":"2016-035A","EPOCH":"2026-04-03T22:38:38.940864","MEAN_MOTION":1.00276525,"ECCENTRICITY":0.00015225,"INCLINATION":0.013,"RA_OF_ASC_NODE":222.4604,"ARG_OF_PERICENTER":25.0744,"MEAN_ANOMALY":189.3588,"EPHEMERIS_TYPE":0,"CLASSIFICATION_TYPE":"U","NORAD_CAT_ID":41581,"ELEMENT_SET_NO":999,"REV_AT_EPOCH":3593,"BSTAR":0,"MEAN_MOTION_DOT":-1.53e-6,"MEAN_MOTION_DDOT":0},{"OBJECT_NAME":"INTELSAT 36 (IS-36)","OBJECT_ID":"2016-053A","EPOCH":"2026-04-02T14:54:22.003200","MEAN_MOTION":1.00270459,"ECCENTRICITY":9.562e-5,"INCLINATION":0.0089,"RA_OF_ASC_NODE":185.4546,"ARG_OF_PERICENTER":155.119,"MEAN_ANOMALY":142.4796,"EPHEMERIS_TYPE":0,"CLASSIFICATION_TYPE":"U","NORAD_CAT_ID":41747,"ELEMENT_SET_NO":999,"REV_AT_EPOCH":3520,"BSTAR":0,"MEAN_MOTION_DOT":0,"MEAN_MOTION_DDOT":0},{"OBJECT_NAME":"INTELSAT 32E (IS-32E)","OBJECT_ID":"2017-007B","EPOCH":"2026-04-04T05:27:38.799360","MEAN_MOTION":1.00268206,"ECCENTRICITY":2.558e-5,"INCLINATION":0.0193,"RA_OF_ASC_NODE":209.7546,"ARG_OF_PERICENTER":58.6867,"MEAN_ANOMALY":322.8327,"EPHEMERIS_TYPE":0,"CLASSIFICATION_TYPE":"U","NORAD_CAT_ID":41945,"ELEMENT_SET_NO":999,"REV_AT_EPOCH":3348,"BSTAR":0,"MEAN_MOTION_DOT":0,"MEAN_MOTION_DDOT":0},{"OBJECT_NAME":"INTELSAT 35E (IS-35E)","OBJECT_ID":"2017-041A","EPOCH":"2026-04-04T05:19:38.595936","MEAN_MOTION":1.00273083,"ECCENTRICITY":0.00021263,"INCLINATION":0.0167,"RA_OF_ASC_NODE":219.8942,"ARG_OF_PERICENTER":154.6653,"MEAN_ANOMALY":223.3781,"EPHEMERIS_TYPE":0,"CLASSIFICATION_TYPE":"U","NORAD_CAT_ID":42818,"ELEMENT_SET_NO":999,"REV_AT_EPOCH":3207,"BSTAR":0,"MEAN_MOTION_DOT":-2.38e-6,"MEAN_MOTION_DDOT":0},{"OBJECT_NAME":"INTELSAT 37E (IS-37E)","OBJECT_ID":"2017-059A","EPOCH":"2026-04-04T05:11:38.889312","MEAN_MOTION":1.00270816,"ECCENTRICITY":0.00021726,"INCLINATION":0.0182,"RA_OF_ASC_NODE":199.0497,"ARG_OF_PERICENTER":193.0712,"MEAN_ANOMALY":220.3182,"EPHEMERIS_TYPE":0,"CLASSIFICATION_TYPE":"U","NORAD_CAT_ID":42950,"ELEMENT_SET_NO":999,"REV_AT_EPOCH":3132,"BSTAR":0,"MEAN_MOTION_DOT":0,"MEAN_MOTION_DDOT":0},{"OBJECT_NAME":"AZERSPACE 2 (IS-38)","OBJECT_ID":"2018-074A","EPOCH":"2026-04-04T02:43:59.770272","MEAN_MOTION":1.00271589,"ECCENTRICITY":0.00015351,"INCLINATION":0.0026,"RA_OF_ASC_NODE":182.5545,"ARG_OF_PERICENTER":204.7795,"MEAN_ANOMALY":251.2061,"EPHEMERIS_TYPE":0,"CLASSIFICATION_TYPE":"U","NORAD_CAT_ID":43632,"ELEMENT_SET_NO":999,"REV_AT_EPOCH":2770,"BSTAR":0,"MEAN_MOTION_DOT":1.36e-6,"MEAN_MOTION_DDOT":0},{"OBJECT_NAME":"HORIZONS-3E","OBJECT_ID":"2018-074B","EPOCH":"2026-04-04T05:02:01.531680","MEAN_MOTION":1.00272627,"ECCENTRICITY":7.04e-5,"INCLINATION":0.0168,"RA_OF_ASC_NODE":32.8001,"ARG_OF_PERICENTER":294.4706,"MEAN_ANOMALY":109.7631,"EPHEMERIS_TYPE":0,"CLASSIFICATION_TYPE":"U","NORAD_CAT_ID":43633,"ELEMENT_SET_NO":999,"REV_AT_EPOCH":2759,"BSTAR":0,"MEAN_MOTION_DOT":-3.1e-7,"MEAN_MOTION_DDOT":0},{"OBJECT_NAME":"AT&T T-16","OBJECT_ID":"2019-034A","EPOCH":"2026-04-04T03:45:01.416096","MEAN_MOTION":1.00273719,"ECCENTRICITY":9.556e-5,"INCLINATION":0.0264,"RA_OF_ASC_NODE":102.7749,"ARG_OF_PERICENTER":80.5716,"MEAN_ANOMALY":324.5259,"EPHEMERIS_TYPE":0,"CLASSIFICATION_TYPE":"U","NORAD_CAT_ID":44333,"ELEMENT_SET_NO":999,"REV_AT_EPOCH":2489,"BSTAR":0,"MEAN_MOTION_DOT":-1.16e-6,"MEAN_MOTION_DDOT":0},{"OBJECT_NAME":"INTELSAT 39 (IS-39)","OBJECT_ID":"2019-049B","EPOCH":"2026-04-04T02:48:44.315712","MEAN_MOTION":1.00270172,"ECCENTRICITY":3.872e-5,"INCLINATION":0.0183,"RA_OF_ASC_NODE":204.5656,"ARG_OF_PERICENTER":304.6095,"MEAN_ANOMALY":147.3881,"EPHEMERIS_TYPE":0,"CLASSIFICATION_TYPE":"U","NORAD_CAT_ID":44476,"ELEMENT_SET_NO":999,"REV_AT_EPOCH":2438,"BSTAR":0,"MEAN_MOTION_DOT":0,"MEAN_MOTION_DDOT":0},{"OBJECT_NAME":"GALAXY 30 (G-30)","OBJECT_ID":"2020-056C","EPOCH":"2026-04-04T05:20:52.223424","MEAN_MOTION":1.00271919,"ECCENTRICITY":0.00024517,"INCLINATION":0.0179,"RA_OF_ASC_NODE":206.7448,"ARG_OF_PERICENTER":194.0795,"MEAN_ANOMALY":106.9342,"EPHEMERIS_TYPE":0,"CLASSIFICATION_TYPE":"U","NORAD_CAT_ID":46114,"ELEMENT_SET_NO":999,"REV_AT_EPOCH":2055,"BSTAR":0,"MEAN_MOTION_DOT":0,"MEAN_MOTION_DDOT":0},{"OBJECT_NAME":"GALAXY 33 (G-33)","OBJECT_ID":"2022-128A","EPOCH":"2026-04-04T05:18:29.951136","MEAN_MOTION":1.00270954,"ECCENTRICITY":0.00019873,"INCLINATION":0.0156,"RA_OF_ASC_NODE":222.9553,"ARG_OF_PERICENTER":159.1067,"MEAN_ANOMALY":117.1024,"EPHEMERIS_TYPE":0,"CLASSIFICATION_TYPE":"U","NORAD_CAT_ID":54026,"ELEMENT_SET_NO":999,"REV_AT_EPOCH":1300,"BSTAR":0,"MEAN_MOTION_DOT":0,"MEAN_MOTION_DDOT":0},{"OBJECT_NAME":"GALAXY 34 (G-34)","OBJECT_ID":"2022-128B","EPOCH":"2026-04-04T05:12:35.837280","MEAN_MOTION":1.00270403,"ECCENTRICITY":0.00014844,"INCLINATION":0.0178,"RA_OF_ASC_NODE":185.576,"ARG_OF_PERICENTER":185.036,"MEAN_ANOMALY":131.1333,"EPHEMERIS_TYPE":0,"CLASSIFICATION_TYPE":"U","NORAD_CAT_ID":54027,"ELEMENT_SET_NO":999,"REV_AT_EPOCH":1317,"BSTAR":0,"MEAN_MOTION_DOT":0,"MEAN_MOTION_DDOT":0}]
